     3.04           N: GNSS NAV DATA    M: MIXED            RINEX VERSION / TYPE
ssrcrin-15.6.1x                         20250101 200000 UTC PGM / RUN BY / DATE 
    18                                                      LEAP SECONDS        
                                                            END OF HEADER       
S23 2025 01 01 20 02 40 0.000000000000E+00 0.000000000000E+00 3.313640000000E+05
     3.866796400000E+04 0.000000000000E+00 0.000000000000E+00 6.300000000000E+01
     1.681330800000E+04 0.000000000000E+00 0.000000000000E+00 3.276700000000E+04
     0.000000000000E+00 0.000000000000E+00 0.000000000000E+00 4.800000000000E+01
S21 2025 01 01 20 02 40 0.000000000000E+00 0.000000000000E+00 3.313730000000E+05
     4.200468400000E+04 0.000000000000E+00 0.000000000000E+00 6.300000000000E+01
    -3.674932960000E+03 0.000000000000E+00 0.000000000000E+00 3.276700000000E+04
     0.000000000000E+00 0.000000000000E+00 0.000000000000E+00 3.300000000000E+01
S27 2025 01 01 20 04 16 1.206062734127E-07 6.821210263297E-11 3.314330000000E+05
     2.416607176000E+04 4.270000000000E-03-1.625000000000E-07 3.100000000000E+01
     3.459700968000E+04-3.419375000000E-03-1.375000000000E-07 4.096000000000E+03
     1.051828000000E+02 4.030400000000E-02-5.625000000000E-07 2.400000000000E+01
S28 2025 01 01 20 04 16 3.832392394543E-07 3.183231456205E-11 3.314330000000E+05
     5.134429840000E+03 1.889375000000E-03-1.125000000000E-07 6.300000000000E+01
     4.186644488000E+04-1.217500000000E-03-3.750000000000E-08 3.276700000000E+04
     8.772000000000E-01-1.628000000000E-03 0.000000000000E+00 2.400000000000E+01
S36 2025 01 01 20 04 16 0.000000000000E+00 0.000000000000E+00 3.314570000000E+05
     4.200368800000E+04 0.000000000000E+00 0.000000000000E+00 6.300000000000E+01
     3.674846960000E+03 0.000000000000E+00 0.000000000000E+00 3.276700000000E+04
     0.000000000000E+00 0.000000000000E+00 0.000000000000E+00 1.140000000000E+02
S44 2025 01 01 20 04 16 8.414499461651E-07 0.000000000000E+00 3.314720000000E+05
     7.322484640000E+03-1.436250000000E-03-3.750000000000E-08 6.300000000000E+01
     4.149298320000E+04-7.962500000000E-04 2.125000000000E-07 3.276700000000E+04
     1.923237600000E+03 8.720000000000E-03-5.062500000000E-06 6.000000000000E+01
S23 2025 01 01 20 04 32 0.000000000000E+00 0.000000000000E+00 3.314870000000E+05
     3.866796400000E+04 0.000000000000E+00 0.000000000000E+00 6.300000000000E+01
     1.681330800000E+04 0.000000000000E+00 0.000000000000E+00 3.276700000000E+04
     0.000000000000E+00 0.000000000000E+00 0.000000000000E+00 4.900000000000E+01
S21 2025 01 01 20 05 20 0.000000000000E+00 0.000000000000E+00 3.315350000000E+05
     4.200468400000E+04 0.000000000000E+00 0.000000000000E+00 6.300000000000E+01
    -3.674932960000E+03 0.000000000000E+00 0.000000000000E+00 3.276700000000E+04
     0.000000000000E+00 0.000000000000E+00 0.000000000000E+00 3.400000000000E+01
S44 2025 01 01 20 06 24 8.414499461651E-07 0.000000000000E+00 3.315920000000E+05
     7.322300240000E+03-1.445625000000E-03-2.500000000000E-08 6.300000000000E+01
     4.149288480000E+04-7.412500000000E-04 2.125000000000E-07 3.276700000000E+04
     1.924270400000E+03 7.412000000000E-03-5.062500000000E-06 6.000000000000E+01
S23 2025 01 01 20 06 40 0.000000000000E+00 0.000000000000E+00 3.316120000000E+05
     3.866796400000E+04 0.000000000000E+00 0.000000000000E+00 6.300000000000E+01
     1.681330800000E+04 0.000000000000E+00 0.000000000000E+00 3.276700000000E+04
     0.000000000000E+00 0.000000000000E+00 0.000000000000E+00 5.000000000000E+01
S36 2025 01 01 20 06 40 0.000000000000E+00 0.000000000000E+00 3.316130000000E+05
     4.200368800000E+04 0.000000000000E+00 0.000000000000E+00 6.300000000000E+01
     3.674846960000E+03 0.000000000000E+00 0.000000000000E+00 3.276700000000E+04
     0.000000000000E+00 0.000000000000E+00 0.000000000000E+00 1.150000000000E+02
S27 2025 01 01 20 08 32 1.378357410431E-07 7.275957614183E-11 3.316900000000E+05
     2.416715952000E+04 4.228125000000E-03-1.625000000000E-07 3.100000000000E+01
     3.459612984000E+04-3.455625000000E-03-1.375000000000E-07 4.096000000000E+03
     1.154820000000E+02 4.015600000000E-02-6.250000000000E-07 2.500000000000E+01
S28 2025 01 01 20 08 32 3.911554813385E-07 2.728484105319E-11 3.316900000000E+05
     5.134909840000E+03 1.855625000000E-03-1.125000000000E-07 6.300000000000E+01
     4.186613200000E+04-1.230000000000E-03-3.750000000000E-08 3.276700000000E+04
     4.604000000000E-01-1.628000000000E-03 0.000000000000E+00 2.500000000000E+01
S21 2025 01 01 20 08 16 0.000000000000E+00 0.000000000000E+00 3.316970000000E+05
     4.200468400000E+04 0.000000000000E+00 0.000000000000E+00 6.300000000000E+01
    -3.674932960000E+03 0.000000000000E+00 0.000000000000E+00 3.276700000000E+04
     0.000000000000E+00 0.000000000000E+00 0.000000000000E+00 3.500000000000E+01
S44 2025 01 01 20 08 32 8.414499461651E-07 0.000000000000E+00 3.317120000000E+05
     7.322114640000E+03-1.453750000000E-03-2.500000000000E-08 6.300000000000E+01
     4.149279336000E+04-6.868750000000E-04 2.125000000000E-07 3.276700000000E+04
     1.925135600000E+03 6.104000000000E-03-5.062500000000E-06 6.000000000000E+01
S23 2025 01 01 20 08 48 0.000000000000E+00 0.000000000000E+00 3.317400000000E+05
     3.866796400000E+04 0.000000000000E+00 0.000000000000E+00 6.300000000000E+01
     1.681330800000E+04 0.000000000000E+00 0.000000000000E+00 3.276700000000E+04
     0.000000000000E+00 0.000000000000E+00 0.000000000000E+00 5.100000000000E+01
S36 2025 01 01 20 09 20 0.000000000000E+00 0.000000000000E+00 3.317640000000E+05
     4.200368800000E+04 0.000000000000E+00 0.000000000000E+00 6.300000000000E+01
     3.674846960000E+03 0.000000000000E+00 0.000000000000E+00 3.276700000000E+04
     0.000000000000E+00 0.000000000000E+00 0.000000000000E+00 1.160000000000E+02
S44 2025 01 01 20 10 40 8.414499461651E-07 0.000000000000E+00 3.318320000000E+05
     7.321928080000E+03-1.461250000000E-03-2.500000000000E-08 6.300000000000E+01
     4.149270888000E+04-6.325000000000E-04 2.125000000000E-07 3.276700000000E+04
     1.925833600000E+03 4.796000000000E-03-5.062500000000E-06 6.000000000000E+01
S21 2025 01 01 20 10 56 0.000000000000E+00 0.000000000000E+00 3.318590000000E+05
     4.200468400000E+04 0.000000000000E+00 0.000000000000E+00 6.300000000000E+01
    -3.674932960000E+03 0.000000000000E+00 0.000000000000E+00 3.276700000000E+04
     0.000000000000E+00 0.000000000000E+00 0.000000000000E+00 3.600000000000E+01
S23 2025 01 01 20 10 56 0.000000000000E+00 0.000000000000E+00 3.318630000000E+05
     3.866796400000E+04 0.000000000000E+00 0.000000000000E+00 6.300000000000E+01
     1.681330800000E+04 0.000000000000E+00 0.000000000000E+00 3.276700000000E+04
     0.000000000000E+00 0.000000000000E+00 0.000000000000E+00 5.200000000000E+01
E13 2025 01 01 20 00 00-2.861913526431E-05-4.121147867409E-13 0.000000000000E+00
     4.400000000000E+01 1.635000000000E+02 2.531891177716E-09 2.604776145919E+00
     7.661059498787E-06 3.826683387160E-04 1.884996891022E-06 5.440614618301E+03
     3.312000000000E+05-4.284083843231E-08-1.776015124490E+00 5.029141902924E-08
     9.996874510978E-01 3.189687500000E+02-1.108176070473E+00-5.582375385485E-09
     2.107230631757E-10 5.170000000000E+02 2.347000000000E+03
     3.120000000000E+00 0.000000000000E+00 2.561137080193E-09 3.259629011154E-09
     3.318650000000E+05
E23 2025 01 01 20 00 00 8.342904038727E-06-2.557953848736E-13 0.000000000000E+00
     4.400000000000E+01-2.375000000000E+01 3.518360839566E-09 4.029951386394E-01
    -1.041218638420E-06 3.614985616878E-04 6.353482604027E-06 5.440607896805E+03
     3.312000000000E+05-9.313225746155E-09 2.409449478854E+00 2.793967723846E-08
     9.661039502674E-01 2.068125000000E+02 1.613922600252E+00-5.524515832545E-09
    -4.857345185067E-10 5.170000000000E+02 2.347000000000E+03
     3.120000000000E+00 3.900000000000E+02-6.984919309616E-10 1.164153218269E-09
     3.318650000000E+05
E03 2025 01 01 20 00 00-1.638073590584E-04-2.501110429876E-12 0.000000000000E+00
     4.400000000000E+01-1.679375000000E+02 2.680468795142E-09 5.439229189728E-02
    -7.841736078262E-06 2.409891458228E-04 1.082010567188E-05 5.440615711212E+03
     3.312000000000E+05-5.029141902924E-08 3.130768803602E-01-2.980232238770E-08
     9.635959849548E-01 1.109375000000E+02 9.271309436624E-01-5.221288916213E-09
     2.403671551140E-10 5.170000000000E+02 2.347000000000E+03
     3.120000000000E+00 0.000000000000E+00 6.984919309616E-10 1.629814505577E-09
     3.318650000000E+05
E08 2025 01 01 20 00 00-3.935520653613E-04-6.139089236967E-12 0.000000000000E+00
     4.400000000000E+01-1.548125000000E+02 2.491532353752E-09-4.380724295094E-01
    -7.180497050285E-06 1.763664186001E-04 1.147761940956E-05 5.440623868942E+03
     3.312000000000E+05 1.303851604462E-08 3.139264261471E-01 4.656612873077E-08
     9.694340579854E-01 9.868750000000E+01 6.447033922669E-01-5.184858827325E-09
     2.828689254833E-10 5.170000000000E+02 2.347000000000E+03
     3.120000000000E+00 0.000000000000E+00-5.820766091347E-09-6.053596735001E-09
     3.318650000000E+05
R04 2025 01 01 20 15 00 2.708546817303E-04 1.818989403546E-12 3.318900000000E+05
     1.536251855469E+04-3.784065246582E-01 0.000000000000E+00 0.000000000000E+00
     1.961249560547E+04-6.870107650757E-01 4.656612873077E-09 6.000000000000E+00
     5.560664062500E+03 3.485220909119E+00 1.862645149231E-09 0.000000000000E+00
S36 2025 01 01 20 12 00 0.000000000000E+00 0.000000000000E+00 3.319200000000E+05
     4.200368800000E+04 0.000000000000E+00 0.000000000000E+00 6.300000000000E+01
     3.674846960000E+03 0.000000000000E+00 0.000000000000E+00 3.276700000000E+04
     0.000000000000E+00 0.000000000000E+00 0.000000000000E+00 1.170000000000E+02
